GLOBALSTAR M063         
1 26081U 00008A   24229.85794826 -.00000061  00000+0  32082-3 0  9998
2 26081  51.9930 193.0576 0004555  85.9005 290.4283 11.86160047121469
GLOBALSTAR M062         
1 26082U 00008B   24229.65310411 -.00000018  00000+0  57338-3 0  9994
2 26082  51.9834 271.3132 0007269 181.1390 329.4086 12.43442661458738
GLOBALSTAR M060         
1 26083U 00008C   24229.20053382 -.00000033  00000+0  57970-3 0  9996
2 26083  51.9998 189.5003 0003194 229.1708 232.3961 12.17639421115216
GLOBALSTAR M064         
1 26084U 00008D   24229.36540583 -.00000050  00000+0  47335-3 0  9991
2 26084  52.0036 296.7818 0001737 179.3772 180.7063 11.88521209130852
GLOBALSTAR M065         
1 31571U 07020A   24229.78542209 -.00000107  00000+0 -17922-4 0  9996
2 31571  51.9892  72.7459 0010221 357.3447 107.9170 12.61975184794971
GLOBALSTAR M069         
1 31573U 07020C   24229.85806273 -.00000065  00000+0  21523-3 0  9993
2 31573  51.9966  28.2755 0001012 102.4089  62.5880 12.62246057796112
GLOBALSTAR M072         
1 31574U 07020D   24229.02889455 -.00000100  00000+0  21685-4 0  9996
2 31574  52.0077 126.7941 0000971  37.8383 335.8389 12.62261731794282
GLOBALSTAR M071         
1 31576U 07020F   24229.79864028 -.00000068  00000+0  20172-3 0  9993
2 31576  52.0080  33.6692 0001337 120.4216  14.3107 12.62272549457291
